{
  "type": "FeatureCollection",
  "features": [
    {
      "type": "Feature",
      "properties": {
        "norad_id": 33986,
        "name": "COSMOS 2251 DEB",
        "group": "cosmos-2251-debris",
        "lat": -71.466579310017,
        "lon": -100.16731678514424,
        "alt_km": 766.4912213751604,
        "timestamp": "2025-12-04T05:42:43.765331+00:00",
        "meta_object_name": "COSMOS 2251 DEB",
        "meta_object_id": "1993-036FV",
        "meta_epoch": "2025-12-03T05:11:50.753760",
        "meta_mean_motion": 14.43121163,
        "meta_eccentricity": 0.0039941,
        "meta_inclination": 74.0363,
        "meta_ra_of_asc_node": 320.3611,
        "meta_arg_of_pericenter": 35.4422,
        "meta_mean_anomaly": 339.9984,
        "meta_ephemeris_type": 0,
        "meta_classification_type": "U",
        "meta_norad_cat_id": 33986,
        "meta_element_set_no": 999,
        "meta_rev_at_epoch": 87891,
        "meta_bstar": 0.0010907,
        "meta_mean_motion_dot": 3.672e-05,
        "meta_mean_motion_ddot": 0,
        "tle_line1": "1 33986U 93036FV  25337.21655965  .00003672  00000+0  10907-2 0  9995",
        "tle_line2": "2 33986  74.0363 320.3611 0039941  35.4422 339.9984 14.43121163878910"
      },
      "geometry": {
        "type": "Point",
        "coordinates": [
          -100.16731678514424,
          -71.466579310017
        ]
      }
    },
    {
      "type": "Feature",
      "properties": {
        "norad_id": 33990,
        "name": "COSMOS 2251 DEB",
        "group": "cosmos-2251-debris",
        "lat": -57.1852220455639,
        "lon": -86.91185328023884,
        "alt_km": 796.6537897512644,
        "timestamp": "2025-12-04T05:42:43.765341+00:00",
        "meta_object_name": "COSMOS 2251 DEB",
        "meta_object_id": "1993-036FZ",
        "meta_epoch": "2025-12-03T23:08:18.457728",
        "meta_mean_motion": 13.499493,
        "meta_eccentricity": 0.04075979,
        "meta_inclination": 73.9282,
        "meta_ra_of_asc_node": 300.0829,
        "meta_arg_of_pericenter": 321.9691,
        "meta_mean_anomaly": 88.1847,
        "meta_ephemeris_type": 0,
        "meta_classification_type": "U",
        "meta_norad_cat_id": 33990,
        "meta_element_set_no": 999,
        "meta_rev_at_epoch": 82611,
        "meta_bstar": 0.0028130546,
        "meta_mean_motion_dot": 2.973e-05,
        "meta_mean_motion_ddot": 0,
        "tle_line1": "1 33990U 93036FZ  25337.96410252  .00002973  00000+0  28131-2 0  9991",
        "tle_line2": "2 33990  73.9282 300.0829 0407597 321.9691  88.1847 13.49949300826118"
      },
      "geometry": {
        "type": "Point",
        "coordinates": [
          -86.91185328023884,
          -57.1852220455639
        ]
      }
    },
    {
      "type": "Feature",
      "properties": {
        "norad_id": 33992,
        "name": "COSMOS 2251 DEB",
        "group": "cosmos-2251-debris",
        "lat": 26.17108620366594,
        "lon": 166.0418492148556,
        "alt_km": 643.3780988050748,
        "timestamp": "2025-12-04T05:42:43.765351+00:00",
        "meta_object_name": "COSMOS 2251 DEB",
        "meta_object_id": "1993-036GB",
        "meta_epoch": "2025-12-03T11:44:13.870752",
        "meta_mean_motion": 14.66095302,
        "meta_eccentricity": 0.00517573,
        "meta_inclination": 74.0241,
        "meta_ra_of_asc_node": 355.5788,
        "meta_arg_of_pericenter": 116.3862,
        "meta_mean_anomaly": 44.5115,
        "meta_ephemeris_type": 0,
        "meta_classification_type": "U",
        "meta_norad_cat_id": 33992,
        "meta_element_set_no": 999,
        "meta_rev_at_epoch": 88989,
        "meta_bstar": 0.00096902133,
        "meta_mean_motion_dot": 5.401e-05,
        "meta_mean_motion_ddot": 0,
        "tle_line1": "1 33992U 93036GB  25337.48904943  .00005401  00000+0  96902-3 0  9996",
        "tle_line2": "2 33992  74.0241 355.5788 0051757 116.3862  44.5115 14.66095302889897"
      },
      "geometry": {
        "type": "Point",
        "coordinates": [
          166.0418492148556,
          26.17108620366594
        ]
      }
    },
    {
      "type": "Feature",
      "properties": {
        "norad_id": 33994,
        "name": "COSMOS 2251 DEB",
        "group": "cosmos-2251-debris",
        "lat": 66.0715421176887,
        "lon": -14.009876563737382,
        "alt_km": 757.4687119726259,
        "timestamp": "2025-12-04T05:42:43.765373+00:00",
        "meta_object_name": "COSMOS 2251 DEB",
        "meta_object_id": "1993-036GD",
        "meta_epoch": "2025-12-03T17:51:54.496800",
        "meta_mean_motion": 14.41205744,
        "meta_eccentricity": 0.00233088,
        "meta_inclination": 74.0426,
        "meta_ra_of_asc_node": 207.0552,
        "meta_arg_of_pericenter": 343.0615,
        "meta_mean_anomaly": 84.686,
        "meta_ephemeris_type": 0,
        "meta_classification_type": "U",
        "meta_norad_cat_id": 33994,
        "meta_element_set_no": 999,
        "meta_rev_at_epoch": 88290,
        "meta_bstar": 0.00013781131,
        "meta_mean_motion_dot": 4.2e-06,
        "meta_mean_motion_ddot": 0,
        "tle_line1": "1 33994U 93036GD  25337.74438075  .00000420  00000+0  13781-3 0  9995",
        "tle_line2": "2 33994  74.0426 207.0552 0023308 343.0615  84.6860 14.41205744882903"
      },
      "geometry": {
        "type": "Point",
        "coordinates": [
          -14.009876563737382,
          66.0715421176887
        ]
      }
    },
    {
      "type": "Feature",
      "properties": {
        "norad_id": 33995,
        "name": "COSMOS 2251 DEB",
        "group": "cosmos-2251-debris",
        "lat": 20.363346686137024,
        "lon": 140.993424644002,
        "alt_km": 803.7596655453044,
        "timestamp": "2025-12-04T05:42:43.765385+00:00",
        "meta_object_name": "COSMOS 2251 DEB",
        "meta_object_id": "1993-036GE",
        "meta_epoch": "2025-12-03T04:30:35.521632",
        "meta_mean_motion": 14.34683036,
        "meta_eccentricity": 0.00609,
        "meta_inclination": 74.0597,
        "meta_ra_of_asc_node": 136.8242,
        "meta_arg_of_pericenter": 153.8096,
        "meta_mean_anomaly": 206.6159,
        "meta_ephemeris_type": 0,
        "meta_classification_type": "U",
        "meta_norad_cat_id": 33995,
        "meta_element_set_no": 999,
        "meta_rev_at_epoch": 87382,
        "meta_bstar": 0.0014459,
        "meta_mean_motion_dot": 4.155e-05,
        "meta_mean_motion_ddot": 0,
        "tle_line1": "1 33995U 93036GE  25337.18791113  .00004155  00000+0  14459-2 0  9990",
        "tle_line2": "2 33995  74.0597 136.8242 0060900 153.8096 206.6159 14.34683036873821"
      },
      "geometry": {
        "type": "Point",
        "coordinates": [
          140.993424644002,
          20.363346686137024
        ]
      }
    },
    {
      "type": "Feature",
      "properties": {
        "norad_id": 33999,
        "name": "COSMOS 2251 DEB",
        "group": "cosmos-2251-debris",
        "lat": 40.88704537485442,
        "lon": 53.26592477269739,
        "alt_km": 585.2958023602387,
        "timestamp": "2025-12-04T05:42:43.765396+00:00",
        "meta_object_name": "COSMOS 2251 DEB",
        "meta_object_id": "1993-036GJ",
        "meta_epoch": "2025-12-03T04:48:45.359136",
        "meta_mean_motion": 14.83001777,
        "meta_eccentricity": 0.0044678,
        "meta_inclination": 73.9203,
        "meta_ra_of_asc_node": 249.7953,
        "meta_arg_of_pericenter": 148.1917,
        "meta_mean_anomaly": 212.1973,
        "meta_ephemeris_type": 0,
        "meta_classification_type": "U",
        "meta_norad_cat_id": 33999,
        "meta_element_set_no": 999,
        "meta_rev_at_epoch": 89109,
        "meta_bstar": 0.0018736,
        "meta_mean_motion_dot": 0.00015498,
        "meta_mean_motion_ddot": 0,
        "tle_line1": "1 33999U 93036GJ  25337.20052499  .00015498  00000+0  18736-2 0  9998",
        "tle_line2": "2 33999  73.9203 249.7953 0044678 148.1917 212.1973 14.83001777891098"
      },
      "geometry": {
        "type": "Point",
        "coordinates": [
          53.26592477269739,
          40.88704537485442
        ]
      }
    },
    {
      "type": "Feature",
      "properties": {
        "norad_id": 34001,
        "name": "COSMOS 2251 DEB",
        "group": "cosmos-2251-debris",
        "lat": 68.28940783699893,
        "lon": 71.26322571740516,
        "alt_km": 759.8200885039278,
        "timestamp": "2025-12-04T05:42:43.765406+00:00",
        "meta_object_name": "COSMOS 2251 DEB",
        "meta_object_id": "1993-036GL",
        "meta_epoch": "2025-12-03T22:48:16.122240",
        "meta_mean_motion": 14.37080372,
        "meta_eccentricity": 0.00195514,
        "meta_inclination": 74.0383,
        "meta_ra_of_asc_node": 297.7494,
        "meta_arg_of_pericenter": 20.889,
        "meta_mean_anomaly": 35.3289,
        "meta_ephemeris_type": 0,
        "meta_classification_type": "U",
        "meta_norad_cat_id": 34001,
        "meta_element_set_no": 999,
        "meta_rev_at_epoch": 88020,
        "meta_bstar": 0.0003873566,
        "meta_mean_motion_dot": 1.127e-05,
        "meta_mean_motion_ddot": 0,
        "tle_line1": "1 34001U 93036GL  25337.95018660  .00001127  00000+0  38736-3 0  9994",
        "tle_line2": "2 34001  74.0383 297.7494 0019551  20.8890  35.3289 14.37080372880208"
      },
      "geometry": {
        "type": "Point",
        "coordinates": [
          71.26322571740516,
          68.28940783699893
        ]
      }
    }
  ]
}